[{"OBJECT_NAME":"ONEWEB-0310","OBJECT_ID":"2021-075X","EPOCH":"2026-03-09T19:44:10.768704","MEAN_MOTION":13.12444641,"ECCENTRICITY":0.00018232,"INCLINATION":87.8998,"RA_OF_ASC_NODE":10.4078,"ARG_OF_PERICENTER":80.2008,"MEAN_ANOMALY":279.9326,"EPHEMERIS_TYPE":0,"CLASSIFICATION_TYPE":"U","NORAD_CAT_ID":49096,"ELEMENT_SET_NO":999,"REV_AT_EPOCH":22215,"BSTAR":0.0014705659,"MEAN_MOTION_DOT":5.42e-6,"MEAN_MOTION_DDOT":0},{"OBJECT_NAME":"SL-14 DEB","OBJECT_ID":"1991-056D","EPOCH":"2026-03-09T21:32:18.039264","MEAN_MOTION":13.1413297,"ECCENTRICITY":0.00159596,"INCLINATION":82.5663,"RA_OF_ASC_NODE":219.976,"ARG_OF_PERICENTER":150.8705,"MEAN_ANOMALY":209.3309,"EPHEMERIS_TYPE":0,"CLASSIFICATION_TYPE":"U","NORAD_CAT_ID":45267,"ELEMENT_SET_NO":999,"REV_AT_EPOCH":29118,"BSTAR":-0.00084230434,"MEAN_MOTION_DOT":-2.98e-6,"MEAN_MOTION_DDOT":0}]
